start=new Date('2023-03-22T00:00:00.000Z').valueOf();
sats=[{"COUNTRY_CODE":"US","MEAN_MOTION":"15.49483973","RCS_SIZE":"LARGE","SEMIMAJOR_AXIS":"6796.372","LAUNCH_DATE":"2020-04-22","SITE":"AFETR","OBJECT_ID":"2020-025AW","INCLINATION":"52.9960","MEAN_MOTION_DDOT":"0.0000000000000","ELEMENT_SET_NO":"999","ECCENTRICITY":"0.00110250","OBJECT_TYPE":"PAYLOAD","CENTER_NAME":"EARTH","TLE_LINE1":"1 45575U 20025AW  23080.53734935  .00180165  00000-0  31473-2 0  9998","MEAN_ELEMENT_THEORY":"SGP4","EPOCH":"2023-03-21T12:53:46.983840","PERIAPSIS":"410.744","BSTAR":"0.00314730000000","RA_OF_ASC_NODE":"216.5044","OBJECT_NAME":"STARLINK-1326","TIME_SYSTEM":"UTC","REV_AT_EPOCH":"16272","GP_ID":"228617504","TLE_LINE2":"2 45575  52.9960 216.5044 0011025 300.7491  59.2430 15.49483973162728","FILE":"3866953","MEAN_MOTION_DOT":"0.00180165","REF_FRAME":"TEME","EPHEMERIS_TYPE":"0","PERIOD":"92.934","NORAD_CAT_ID":"45575","APOAPSIS":"425.730","ARG_OF_PERICENTER":"300.7491","DECAY_DATE":null,"CLASSIFICATION_TYPE":"U","MEAN_ANOMALY":"59.2430"},{"COUNTRY_CODE":"US","LAUNCH_DATE":"2020-04-22","SEMIMAJOR_AXIS":"6925.342","RCS_SIZE":"LARGE","MEAN_MOTION":"15.06402062","INCLINATION":"53.0509","OBJECT_ID":"2020-025AX","SITE":"AFETR","ELEMENT_SET_NO":"999","MEAN_MOTION_DDOT":"0.0000000000000","ECCENTRICITY":"0.00013990","CENTER_NAME":"EARTH","OBJECT_TYPE":"PAYLOAD","MEAN_ELEMENT_THEORY":"SGP4","TLE_LINE1":"1 45576U 20025AX  23080.81672537  .00005071  00000-0  35909-3 0  9990","RA_OF_ASC_NODE":"262.3157","BSTAR":"0.00035909000000","PERIAPSIS":"546.238","EPOCH":"2023-03-21T19:36:05.071968","OBJECT_NAME":"STARLINK-1328","TIME_SYSTEM":"UTC","GP_ID":"228592762","REV_AT_EPOCH":"16154","REF_FRAME":"TEME","MEAN_MOTION_DOT":"0.00005071","FILE":"3866762","TLE_LINE2":"2 45576  53.0509 262.3157 0001399  89.8573 270.2576 15.06402062161541","PERIOD":"95.592","EPHEMERIS_TYPE":"0","APOAPSIS":"548.176","ARG_OF_PERICENTER":"89.8573","NORAD_CAT_ID":"45576","MEAN_ANOMALY":"270.2576","CLASSIFICATION_TYPE":"U","DECAY_DATE":null},{"NORAD_CAT_ID":"45577","ARG_OF_PERICENTER":"236.3060","APOAPSIS":"505.441","DECAY_DATE":null,"MEAN_ANOMALY":"123.7517","CLASSIFICATION_TYPE":"U","TLE_LINE2":"2 45577  53.0482 254.1723 0004390 236.3060 123.7517 15.21134035162259","FILE":"3866953","MEAN_MOTION_DOT":"0.00054636","REF_FRAME":"TEME","EPHEMERIS_TYPE":"0","PERIOD":"94.666","OBJECT_NAME":"STARLINK-1330","TIME_SYSTEM":"UTC","REV_AT_EPOCH":"16225","GP_ID":"228616503","TLE_LINE1":"1 45577U 20025AY  23080.78041408  .00054636  00000-0  24194-2 0  9998","MEAN_ELEMENT_THEORY":"SGP4","EPOCH":"2023-03-21T18:43:47.776512","PERIAPSIS":"499.400","RA_OF_ASC_NODE":"254.1723","BSTAR":"0.00241940000000","OBJECT_TYPE":"PAYLOAD","CENTER_NAME":"EARTH","MEAN_MOTION_DDOT":"0.0000000000000","ELEMENT_SET_NO":"999","ECCENTRICITY":"0.00043900","SITE":"AFETR","INCLINATION":"53.0482","OBJECT_ID":"2020-025AY","COUNTRY_CODE":"US","MEAN_MOTION":"15.21134035","RCS_SIZE":"LARGE","SEMIMAJOR_AXIS":"6880.556","LAUNCH_DATE":"2020-04-22"},{"ECCENTRICITY":"0.00009630","MEAN_MOTION_DDOT":"0.0000000000000","ELEMENT_SET_NO":"999","OBJECT_TYPE":"PAYLOAD","CENTER_NAME":"EARTH","MEAN_MOTION":"15.06395639","RCS_SIZE":"LARGE","SEMIMAJOR_AXIS":"6925.362","LAUNCH_DATE":"2020-04-22","COUNTRY_CODE":"US","SITE":"AFETR","INCLINATION":"53.0513","OBJECT_ID":"2020-025AZ","EPHEMERIS_TYPE":"0","PERIOD":"95.592","TLE_LINE2":"2 45578  53.0513 262.3477 0000963 101.1458 258.9639 15.06395639162151","FILE":"3866953","REF_FRAME":"TEME","MEAN_MOTION_DOT":"0.00002970","DECAY_DATE":null,"CLASSIFICATION_TYPE":"U","MEAN_ANOMALY":"258.9639","NORAD_CAT_ID":"45578","APOAPSIS":"547.894","ARG_OF_PERICENTER":"101.1458","PERIAPSIS":"546.560","EPOCH":"2023-03-21T19:25:28.421472","BSTAR":"0.00021820000000","RA_OF_ASC_NODE":"262.3477","TLE_LINE1":"1 45578U 20025AZ  23080.80935673  .00002970  00000-0  21820-3 0  9996","MEAN_ELEMENT_THEORY":"SGP4","REV_AT_EPOCH":"16215","GP_ID":"228616753","OBJECT_NAME":"STARLINK-1331","TIME_SYSTEM":"UTC"},{"LAUNCH_DATE":"2020-04-22","SEMIMAJOR_AXIS":"6925.428","RCS_SIZE":"LARGE","MEAN_MOTION":"15.06373986","COUNTRY_CODE":"US","OBJECT_ID":"2020-025BA","INCLINATION":"53.0545","SITE":"AFETR","ECCENTRICITY":"0.00011660","ELEMENT_SET_NO":"999","MEAN_MOTION_DDOT":"0.0000000000000","CENTER_NAME":"EARTH","OBJECT_TYPE":"PAYLOAD","BSTAR":"0.00056881000000","RA_OF_ASC_NODE":"223.6683","EPOCH":"2023-03-21T13:13:57.495360","PERIAPSIS":"546.486","MEAN_ELEMENT_THEORY":"SGP4","TLE_LINE1":"1 45579U 20025BA  23080.55135990  .00008195  00000-0  56881-3 0  9993","GP_ID":"228617005","REV_AT_EPOCH":"16266","OBJECT_NAME":"STARLINK-1332","TIME_SYSTEM":"UTC","PERIOD":"95.594","EPHEMERIS_TYPE":"0","MEAN_MOTION_DOT":"0.00008195","REF_FRAME":"TEME","FILE":"3866953","TLE_LINE2":"2 45579  53.0545 223.6683 0001166  79.9046 280.2074 15.06373986162665","MEAN_ANOMALY":"280.2074","CLASSIFICATION_TYPE":"U","DECAY_DATE":null,"APOAPSIS":"548.101","ARG_OF_PERICENTER":"79.9046","NORAD_CAT_ID":"45579"},{"RA_OF_ASC_NODE":"272.3138","BSTAR":"0.00049745000000","EPOCH":"2023-03-21T19:34:44.410656","PERIAPSIS":"546.197","MEAN_ELEMENT_THEORY":"SGP4","TLE_LINE1":"1 45580U 20025BB  23080.81579179  .00007136  00000-0  49745-3 0  9990","REV_AT_EPOCH":"16200","GP_ID":"228617256","OBJECT_NAME":"STARLINK-1333","TIME_SYSTEM":"UTC","PERIOD":"95.592","EPHEMERIS_TYPE":"0","REF_FRAME":"TEME","MEAN_MOTION_DOT":"0.00007136","TLE_LINE2":"2 45580  53.0527 272.3138 0001454  89.0329 271.0826 15.06403042162007","FILE":"3866953","DECAY_DATE":null,"MEAN_ANOMALY":"271.0826","CLASSIFICATION_TYPE":"U","APOAPSIS":"548.211","ARG_OF_PERICENTER":"89.0329","NORAD_CAT_ID":"45580","RCS_SIZE":"LARGE","SEMIMAJOR_AXIS":"6925.339","LAUNCH_DATE":"2020-04-22","MEAN_MOTION":"15.06403042","COUNTRY_CODE":"US","OBJECT_ID":"2020-025BB","INCLINATION":"53.0527","SITE":"AFETR","ECCENTRICITY":"0.00014540","ELEMENT_SET_NO":"999","MEAN_MOTION_DDOT":"0.0000000000000","CENTER_NAME":"EARTH","OBJECT_TYPE":"PAYLOAD"},{"MEAN_MOTION_DDOT":"0.0000000000000","ELEMENT_SET_NO":"999","ECCENTRICITY":"0.00009710","OBJECT_TYPE":"PAYLOAD","CENTER_NAME":"EARTH","COUNTRY_CODE":"US","MEAN_MOTION":"15.06403108","SEMIMAJOR_AXIS":"6925.339","LAUNCH_DATE":"2020-04-22","RCS_SIZE":"LARGE","SITE":"AFETR","INCLINATION":"53.0528","OBJECT_ID":"2020-025BC","FILE":"3866953","TLE_LINE2":"2 45581  53.0528 262.2951 0000971 125.7640 234.3439 15.06403108162147","MEAN_MOTION_DOT":"0.00002906","REF_FRAME":"TEME","EPHEMERIS_TYPE":"0","PERIOD":"95.592","NORAD_CAT_ID":"45581","APOAPSIS":"547.876","ARG_OF_PERICENTER":"125.7640","CLASSIFICATION_TYPE":"U","MEAN_ANOMALY":"234.3439","DECAY_DATE":null,"TLE_LINE1":"1 45581U 20025BC  23080.82041003  .00002906  00000-0  21388-3 0  9995","MEAN_ELEMENT_THEORY":"SGP4","PERIAPSIS":"546.532","EPOCH":"2023-03-21T19:41:23.426592","RA_OF_ASC_NODE":"262.2951","BSTAR":"0.00021388000000","OBJECT_NAME":"STARLINK-1335","TIME_SYSTEM":"UTC","GP_ID":"228616005","REV_AT_EPOCH":"16214"},{"LAUNCH_DATE":"2020-04-22","SEMIMAJOR_AXIS":"6925.308","RCS_SIZE":"LARGE","MEAN_MOTION":"15.06413328","COUNTRY_CODE":"US","OBJECT_ID":"2020-025BD","INCLINATION":"53.0528","SITE":"AFETR","ECCENTRICITY":"0.00012830","ELEMENT_SET_NO":"999","MEAN_MOTION_DDOT":"0.0000000000000","CENTER_NAME":"EARTH","OBJECT_TYPE":"PAYLOAD","BSTAR":"0.00031949000000","RA_OF_ASC_NODE":"263.6803","EPOCH":"2023-03-21T12:15:32.583456","PERIAPSIS":"546.284","MEAN_ELEMENT_THEORY":"SGP4","TLE_LINE1":"1 45582U 20025BD  23080.51079379  .00004482  00000-0  31949-3 0  9994","GP_ID":"228584501","REV_AT_EPOCH":"16209","OBJECT_NAME":"STARLINK-1337","TIME_SYSTEM":"UTC","PERIOD":"95.591","EPHEMERIS_TYPE":"0","MEAN_MOTION_DOT":"0.00004482","REF_FRAME":"TEME","FILE":"3866730","TLE_LINE2":"2 45582  53.0528 263.6803 0001283  90.8647 269.2489 15.06413328162096","MEAN_ANOMALY":"269.2489","CLASSIFICATION_TYPE":"U","DECAY_DATE":null,"ARG_OF_PERICENTER":"90.8647","APOAPSIS":"548.061","NORAD_CAT_ID":"45582"},{"COUNTRY_CODE":"US","SEMIMAJOR_AXIS":"6925.375","LAUNCH_DATE":"2020-04-22","RCS_SIZE":"LARGE","MEAN_MOTION":"15.06391506","OBJECT_ID":"2020-025BE","INCLINATION":"53.0512","SITE":"AFETR","ELEMENT_SET_NO":"999","MEAN_MOTION_DDOT":"0.0000000000000","ECCENTRICITY":"0.00010090","CENTER_NAME":"EARTH","OBJECT_TYPE":"PAYLOAD","MEAN_ELEMENT_THEORY":"SGP4","TLE_LINE1":"1 45583U 20025BE  23080.82410119  .00001651  00000-0  12973-3 0  9991","RA_OF_ASC_NODE":"262.2816","BSTAR":"0.00012973000000","EPOCH":"2023-03-21T19:46:42.342816","PERIAPSIS":"546.541","TIME_SYSTEM":"UTC","OBJECT_NAME":"STARLINK-1340","GP_ID":"228592775","REV_AT_EPOCH":"16154","MEAN_MOTION_DOT":"0.00001651","REF_FRAME":"TEME","FILE":"3866763","TLE_LINE2":"2 45583  53.0512 262.2816 0001009  77.3655 282.7446 15.06391506161549","PERIOD":"95.593","EPHEMERIS_TYPE":"0","APOAPSIS":"547.938","ARG_OF_PERICENTER":"77.3655","NORAD_CAT_ID":"45583","MEAN_ANOMALY":"282.7446","CLASSIFICATION_TYPE":"U","DECAY_DATE":null},{"ECCENTRICITY":"0.00014860","MEAN_MOTION_DDOT":"0.0000000000000","ELEMENT_SET_NO":"999","OBJECT_TYPE":"PAYLOAD","CENTER_NAME":"EARTH","MEAN_MOTION":"15.06394622","RCS_SIZE":"LARGE","LAUNCH_DATE":"2020-04-22","SEMIMAJOR_AXIS":"6925.365","COUNTRY_CODE":"US","SITE":"AFETR","INCLINATION":"53.0509","OBJECT_ID":"2020-025BF","EPHEMERIS_TYPE":"0","PERIOD":"95.592","TLE_LINE2":"2 45584  53.0509 262.3246 0001486  72.2647 287.8504 15.06394622161541","FILE":"3866769","REF_FRAME":"TEME","MEAN_MOTION_DOT":"-0.00003231","DECAY_DATE":null,"MEAN_ANOMALY":"287.8504","CLASSIFICATION_TYPE":"U","NORAD_CAT_ID":"45584","APOAPSIS":"548.259","ARG_OF_PERICENTER":"72.2647","EPOCH":"2023-03-21T19:29:25.057248","PERIAPSIS":"546.201","BSTAR":"-0.00019813000000","RA_OF_ASC_NODE":"262.3246","TLE_LINE1":"1 45584U 20025BF  23080.81209557 -.00003231  00000-0 -19813-3 0  9991","MEAN_ELEMENT_THEORY":"SGP4","REV_AT_EPOCH":"16154","GP_ID":"228592926","TIME_SYSTEM":"UTC","OBJECT_NAME":"STARLINK-1343"}];
